{
    "links": {
        "self": "http://www.neowsapp.com/rest/v1/neo/3288605?api_key=iIulBulltgU6a56xZRHN4H3l9WmuAYTsLGpBGhQ2"
    },
    "id": "3288605",
    "neo_reference_id": "3288605",
    "name": "(2005 PX16)",
    "designation": "2005 PX16",
    "nasa_jpl_url": "http://ssd.jpl.nasa.gov/sbdb.cgi?sstr=3288605",
    "absolute_magnitude_h": 21.7,
    "estimated_diameter": {
        "kilometers": {
            "estimated_diameter_min": 0.1214940408,
            "estimated_diameter_max": 0.2716689341
        },
        "meters": {
            "estimated_diameter_min": 121.4940407996,
            "estimated_diameter_max": 271.6689340891
        },
        "miles": {
            "estimated_diameter_min": 0.0754928736,
            "estimated_diameter_max": 0.1688071972
        },
        "feet": {
            "estimated_diameter_min": 398.6025088171,
            "estimated_diameter_max": 891.3023057169
        }
    },
    "is_potentially_hazardous_asteroid": false,
    "close_approach_data": [
        {
            "close_approach_date": "1960-07-26",
            "close_approach_date_full": "1960-Jul-26 21:34",
            "epoch_date_close_approach": -297656760000,
            "relative_velocity": {
                "kilometers_per_second": "13.5056992799",
                "kilometers_per_hour": "48620.5174077559",
                "miles_per_hour": "30210.8987192803"
            },
            "miss_distance": {
                "astronomical": "0.4905115889",
                "lunar": "190.8090080821",
                "kilometers": "73379488.909755643",
                "miles": "45595900.0985401534"
            },
            "orbiting_body": "Earth"
        },
        {
            "close_approach_date": "1976-08-06",
            "close_approach_date_full": "1976-Aug-06 18:13",
            "epoch_date_close_approach": 208203180000,
            "relative_velocity": {
                "kilometers_per_second": "7.0980584265",
                "kilometers_per_hour": "25553.0103354845",
                "miles_per_hour": "15877.6468942903"
            },
            "miss_distance": {
                "astronomical": "0.2540671605",
                "lunar": "98.8321254345",
                "kilometers": "38007906.047748135",
                "miles": "23617017.682408863"
            },
            "orbiting_body": "Earth"
        },
        {
            "close_approach_date": "2005-08-06",
            "close_approach_date_full": "2005-Aug-06 04:11",
            "epoch_date_close_approach": 1123301460000,
            "relative_velocity": {
                "kilometers_per_second": "6.8850460985",
                "kilometers_per_hour": "24786.1659547756",
                "miles_per_hour": "15401.1596178437"
            },
            "miss_distance": {
                "astronomical": "0.1857145473",
                "lunar": "72.2429588997",
                "kilometers": "27782500.704094251",
                "miles": "17263245.4301966238"
            },
            "orbiting_body": "Earth"
        },
        {
            "close_approach_date": "2034-08-03",
            "close_approach_date_full": "2034-Aug-03 23:18",
            "epoch_date_close_approach": 2038259880000,
            "relative_velocity": {
                "kilometers_per_second": "8.1672393669",
                "kilometers_per_hour": "29402.061721003",
                "miles_per_hour": "18269.2977399199"
            },
            "miss_distance": {
                "astronomical": "0.2246415053",
                "lunar": "87.3855455617",
                "kilometers": "33605890.706473711",
                "miles": "20881732.1862147718"
            },
            "orbiting_body": "Earth"
        },
        {
            "close_approach_date": "2108-08-08",
            "close_approach_date_full": "2108-Aug-08 12:47",
            "epoch_date_close_approach": 4373873220000,
            "relative_velocity": {
                "kilometers_per_second": "6.7863330156",
                "kilometers_per_hour": "24430.7988561927",
                "miles_per_hour": "15180.348322616"
            },
            "miss_distance": {
                "astronomical": "0.2040970801",
                "lunar": "79.3937641589",
                "kilometers": "30532488.456179387",
                "miles": "18972008.5829420606"
            },
            "orbiting_body": "Earth"
        }
    ],
    "orbital_data": {
        "orbit_id": "11",
        "orbit_determination_date": "2017-04-06 09:10:40",
        "first_observation_date": "2005-08-10",
        "last_observation_date": "2005-09-20",
        "data_arc_in_days": 41,
        "observations_used": 36,
        "orbit_uncertainty": "6",
        "minimum_orbit_intersection": ".184341",
        "jupiter_tisserand_invariant": "3.518",
        "epoch_osculation": "2459000.5",
        "eccentricity": ".4544648139634553",
        "semi_major_axis": "2.180320202160961",
        "inclination": "11.10537446781242",
        "ascending_node_longitude": "122.6607065372388",
        "orbital_period": "1175.922892434103",
        "perihelion_distance": "1.189441387105117",
        "perihelion_argument": "199.6728413045839",
        "aphelion_distance": "3.171199017216806",
        "perihelion_time": "2459478.792900894461",
        "mean_anomaly": "213.5742050521778",
        "mean_motion": ".3061425220277985",
        "equinox": "J2000",
        "orbit_class": {
            "orbit_class_type": "AMO",
            "orbit_class_description": "Near-Earth asteroid orbits similar to that of 1221 Amor",
            "orbit_class_range": "1.017 AU < q (perihelion) < 1.3 AU"
        }
    },
    "is_sentry_object": false
}